     2.100          NAVIGATION                              RINEX VERSION / TYPE
fic2rin                                 05/27/2014 00:15:36 PGM / RUN BY / DATE
                                                            END OF HEADER
 5 14  5 26 20  0  0.0 -.370183493942D-03  .261479726760D-11  .000000000000D+00
     .107000000000D+03 -.128125000000D+01  .452733143867D-08  .194170798667D+01
    -.745058059692D-08  .357163778972D-02  .115316361189D-04  .515360642815D+04
     .158400000000D+06 -.335276126862D-07 -.656402216484D+00 -.502914190292D-07
     .947365649102D+00  .151500000000D+03  .310334217637D+00 -.794997400547D-08
    -.542522598244D-09  .100000000000D+01  .179400000000D+04  .000000000000D+00
     .240000000000D+01  .000000000000D+00 -.102445483208D-07  .107000000000D+03
     .151206000000D+06  .400000000000D+01
 6 14  5 26 20  0  0.0  .534392893314D-05  .500222085975D-11  .000000000000D+00
     .390000000000D+02 -.160312500000D+02  .469912430882D-08  .292625547035D+01
    -.789761543274D-06  .335064134561D-03  .517256557941D-05  .518122455597D+04
     .158400000000D+06  .000000000000D+00 -.170362195771D+01 -.447034835815D-07
     .960357689975D+00  .277562500000D+03  .243977054656D+01 -.787282793488D-08
    -.307869966877D-09  .100000000000D+01  .179400000000D+04  .000000000000D+00
     .485000000000D+01  .630000000000D+02  .605359673500D-08  .390000000000D+02
     .151206000000D+06  .400000000000D+01
 8 14  5 26 20  0  0.0  .137961469591D-04  .227373675443D-12  .000000000000D+00
     .920000000000D+02 -.600000000000D+02  .413660087746D-08 -.215768691550D+01
    -.334717333317D-05  .136986300349D-01  .203400850296D-05  .515335376930D+04
     .158400000000D+06  .949949026108D-07  .156506904055D+01 -.195577740669D-06
     .996423857876D+00  .361375000000D+03 -.277422363124D+01 -.807105047736D-08
    -.714315468392D-12  .100000000000D+01  .179400000000D+04  .000000000000D+00
     .340000000000D+01  .000000000000D+00 -.419095158577D-08  .920000000000D+02
     .151206000000D+06  .400000000000D+01
 9 14  5 26 20  0  0.0  .330535694957D-03  .284217094304D-11  .000000000000D+00
     .800000000000D+02 -.295625000000D+02  .456983320904D-08 -.614553317744D+00
    -.173039734364D-05  .171918006381D-01  .203587114811D-05  .515367403603D+04
     .158400000000D+06 -.229105353355D-06  .144519433520D+01  .577419996262D-07
     .981712720024D+00  .359500000000D+03  .181034766278D+01 -.862643075404D-08
     .828605943335D-10  .100000000000D+01  .179400000000D+04  .000000000000D+00
     .340000000000D+01  .630000000000D+02 -.605359673500D-08  .800000000000D+02
     .151206000000D+06  .400000000000D+01
10 14  5 26 20  0  0.0 -.127185136080D-03 -.159161572810D-11  .000000000000D+00
     .910000000000D+02  .846875000000D+01  .462126392276D-08  .216124777953D+01
     .325962901115D-06  .135664631380D-01  .120569020510D-04  .515373799324D+04
     .158400000000D+06 -.143423676491D-06 -.639136462325D+00 -.303611159325D-06
     .942179085175D+00  .136125000000D+03  .865530206316D+00 -.793711632704D-08
    -.452161691492D-09  .100000000000D+01  .179400000000D+04  .000000000000D+00
     .340000000000D+01  .000000000000D+00 -.279396772385D-08  .910000000000D+02
     .151206000000D+06  .400000000000D+01
11 14  5 26 20  0  0.0 -.492165330797D-03 -.306954461848D-11  .000000000000D+00
     .750000000000D+02  .134687500000D+02  .657741683296D-08 -.149488013290D+01
     .875443220139D-06  .149520075647D-01  .386126339436D-05  .515369208908D+04
     .158400000000D+06  .258907675743D-06 -.201892897037D+01  .327825546265D-06
     .890233337975D+00  .265312500000D+03  .128668020952D+01 -.904680540719D-08
    -.428589281035D-11  .100000000000D+01  .179400000000D+04  .000000000000D+00
     .240000000000D+01  .000000000000D+00 -.121071934700D-07  .750000000000D+02
     .151206000000D+06  .400000000000D+01
14 14  5 26 20  0  0.0  .169315375388D-03 -.341060513165D-11  .000000000000D+00
     .410000000000D+02  .115156250000D+03  .420767526656D-08  .102335394877D+01
     .596418976784D-05  .752540433314D-02  .650063157082D-05  .515367093468D+04
     .158400000000D+06 -.143423676491D-06  .469081909887D+00  .521540641785D-07
     .970484260542D+00  .255468750000D+03 -.200254933934D+01 -.816926885427D-08
     .330013746397D-09  .100000000000D+01  .179400000000D+04  .000000000000D+00
     .240000000000D+01  .000000000000D+00 -.931322574615D-08  .410000000000D+02
     .151206000000D+06  .400000000000D+01
15 14  5 26 20  0  0.0 -.181732699275D-03 -.216004991671D-11  .000000000000D+00
     .360000000000D+02  .117843750000D+03  .493091967831D-08  .408473750754D+00
     .624917447567D-05  .625410000794D-02  .753812491894D-05  .515370012474D+04
     .158400000000D+06  .782310962677D-07  .357134854157D+00  .614672899246D-07
     .937121780301D+00  .221000000000D+03  .274573050601D+00 -.838534928346D-08
     .330370904131D-09  .100000000000D+01  .179400000000D+04  .000000000000D+00
     .240000000000D+01  .000000000000D+00 -.102445483208D-07  .360000000000D+02
     .151206000000D+06  .400000000000D+01
16 14  5 26 20  0  0.0 -.216440297663D-03  .193267624127D-11  .000000000000D+00
     .440000000000D+02 -.977812500000D+02  .384373153542D-08  .203530875940D+01
    -.490434467793D-05  .775480887387D-02  .107586383820D-04  .515359982681D+04
     .158400000000D+06 -.124797224998D-06  .254746868839D+01  .173225998878D-06
     .988354452953D+00  .189562500000D+03  .209694566300D+00 -.763674667258D-08
    -.140362989539D-09  .100000000000D+01  .179400000000D+04  .000000000000D+00
     .240000000000D+01  .000000000000D+00 -.102445483208D-07  .440000000000D+02
     .151206000000D+06  .400000000000D+01
18 14  5 26 20  0  0.0  .321683473885D-03  .238742359215D-11  .000000000000D+00
     .600000000000D+02 -.687500000000D+01  .484877339945D-08  .269086564769D+01
    -.350177288055D-06  .153066226048D-01  .111330300570D-04  .515370090866D+04
     .158400000000D+06  .111758708954D-06 -.661654570763D+00 -.132247805595D-06
     .925923652962D+00  .143187500000D+03 -.203784358388D+01 -.786497046473D-08
    -.411802867528D-09  .100000000000D+01  .179400000000D+04  .000000000000D+00
     .240000000000D+01  .000000000000D+00 -.111758708954D-07  .600000000000D+02
     .151206000000D+06  .400000000000D+01
19 14  5 26 20  0  0.0 -.459135510027D-03 -.216004991671D-11  .000000000000D+00
     .660000000000D+02  .254687500000D+02  .465126517244D-08  .315151870198D+00
     .143423676491D-05  .103672847617D-01  .808015465736D-05  .515361203766D+04
     .158400000000D+06  .838190317154D-07 -.265355888283D+01  .150874257088D-06
     .965950667174D+00  .221875000000D+03  .432805015952D+00 -.814355349740D-08
     .398588031363D-09  .100000000000D+01  .179400000000D+04  .000000000000D+00
     .240000000000D+01  .000000000000D+00 -.149011611938D-07  .660000000000D+02
     .151206000000D+06  .400000000000D+01
20 14  5 26 20  0  0.0  .193495303392D-03  .386535248253D-11  .000000000000D+00
     .760000000000D+02  .362500000000D+01  .489913263997D-08 -.307707248035D+01
     .245869159698D-06  .576417776756D-02  .109355896711D-04  .515379404259D+04
     .158400000000D+06  .316649675369D-07 -.714720687923D+00 -.558793544769D-08
     .926875026625D+00  .149218750000D+03  .133357412755D+01 -.799604735318D-08
    -.492877673191D-09  .100000000000D+01  .179400000000D+04  .000000000000D+00
     .240000000000D+01  .000000000000D+00 -.838190317154D-08  .760000000000D+02
     .151206000000D+06  .400000000000D+01
21 14  5 26 20  0  0.0 -.363389495760D-03 -.227373675443D-11  .000000000000D+00
     .820000000000D+02 -.198125000000D+02  .543415492579D-08 -.263085452883D+01
    -.112317502499D-05  .215168923605D-01  .414252281189D-05  .515374675369D+04
     .158400000000D+06  .305473804474D-06 -.170713088083D+01 -.117346644402D-06
     .931903373036D+00  .280781250000D+03 -.202282603638D+01 -.823998608564D-08
    -.753602819154D-10  .100000000000D+01  .179400000000D+04  .000000000000D+00
     .240000000000D+01  .000000000000D+00 -.111758708954D-07  .820000000000D+02
     .151206000000D+06  .400000000000D+01
22 14  5 26 20  0  0.0  .237265136093D-03  .318323145621D-11  .000000000000D+00
     .650000000000D+02  .215625000000D+01  .503092384389D-08  .213281197435D+01
     .102445483208D-06  .724461965729D-02  .107437372208D-04  .515373225594D+04
     .158400000000D+06 -.372529029846D-08 -.659766876864D+00 -.149011611938D-06
     .923700109646D+00  .152156250000D+03 -.205901564823D+01 -.815176812529D-08
    -.410017078857D-09  .100000000000D+01  .179400000000D+04  .000000000000D+00
     .340000000000D+01  .000000000000D+00 -.172294676304D-07  .650000000000D+02
     .151206000000D+06  .400000000000D+01
23 14  5 26 20  0  0.0 -.236919149756D-04 -.306954461848D-11  .000000000000D+00
     .810000000000D+02  .127531250000D+03  .465197948790D-08 -.157414183904D-01
     .676326453686D-05  .939625164028D-02  .640377402306D-05  .515378719521D+04
     .158400000000D+06  .178813934326D-06  .403778875057D+00  .782310962677D-07
     .952172105950D+00  .251875000000D+03 -.278710992654D+01 -.838142054838D-08
     .418588864478D-09  .100000000000D+01  .179400000000D+04  .000000000000D+00
     .240000000000D+01  .000000000000D+00 -.200234353542D-07  .810000000000D+02
     .151206000000D+06  .400000000000D+01
24 14  5 26 20  0  0.0 -.290502794087D-04 -.682121026330D-12  .000000000000D+00
     .160000000000D+02 -.189375000000D+02  .504628162646D-08 -.855073636541D+00
    -.966712832451D-06  .207827717531D-02  .691041350365D-06  .515372822952D+04
     .158400000000D+06  .707805156708D-07  .143092727637D+01  .149011611938D-07
     .956545865278D+00  .363250000000D+03  .348545438911D+00 -.861750181068D-08
     .128576784311D-10  .100000000000D+01  .179400000000D+04  .000000000000D+00
     .240000000000D+01  .000000000000D+00  .279396772385D-08  .160000000000D+02
     .151206000000D+06  .400000000000D+01
